[{"OBJECT_NAME":"STARLINK-32517","OBJECT_ID":"2024-210X","EPOCH":"2026-03-09T08:24:05.555520","MEAN_MOTION":15.2757242,"ECCENTRICITY":0.00012331,"INCLINATION":42.9999,"RA_OF_ASC_NODE":182.1168,"ARG_OF_PERICENTER":267.538,"MEAN_ANOMALY":92.5331,"EPHEMERIS_TYPE":0,"CLASSIFICATION_TYPE":"U","NORAD_CAT_ID":61980,"ELEMENT_SET_NO":999,"REV_AT_EPOCH":7477,"BSTAR":0.0012058191,"MEAN_MOTION_DOT":0.00033061,"MEAN_MOTION_DDOT":0},{"OBJECT_NAME":"EDISON-1","OBJECT_ID":"2025-009B","EPOCH":"2026-03-09T19:16:13.822464","MEAN_MOTION":15.29042904,"ECCENTRICITY":0.00043285,"INCLINATION":97.4042,"RA_OF_ASC_NODE":151.6286,"ARG_OF_PERICENTER":306.4185,"MEAN_ANOMALY":53.6655,"EPHEMERIS_TYPE":0,"CLASSIFICATION_TYPE":"U","NORAD_CAT_ID":62610,"ELEMENT_SET_NO":999,"REV_AT_EPOCH":6375,"BSTAR":0.00052814963,"MEAN_MOTION_DOT":0.00014835,"MEAN_MOTION_DDOT":0}]
